STARLINK-31498          
1 59189U 24045M   26068.46477257 -.00003866  00000+0 -13098-3 0  9999
2 59189  43.0039  94.0981 0001469 266.7296  93.3388 15.27588531113129
FLOCK 4G-8              
1 62613U 25009E   26068.72381419  .00013559  00000+0  50438-3 0  9996
2 62613  97.4045 151.2834 0003050 315.2538  44.8455 15.27623414 63721
